NORAD_CAT_ID,OBJECT_NAME,OBJECT_TYPE,EPOCH,MEAN_MOTION,ECCENTRICITY,INCLINATION,RA_OF_ASC_NODE,ARG_OF_PERICENTER,MEAN_ANOMALY,BSTAR,MEAN_MOTION_DOT,MEAN_MOTION_DDOT,TLE_LINE0,TLE_LINE1,TLE_LINE2,SEMIMAJOR_AXIS,PERIOD,APOGEE,PERIGEE,DECAYED
51127.0,STARLINK-3370,PAYLOAD,2024-08-03 18:36:36,15.08860538,0.0001635,53.2163,35.934,90.0916,270.0264,0.0011255,0.0001768,0.0,0 STARLINK-3370,1 51127U 22005Z   24216.77541678  .00017680  00000-0  11255-2 0  9993,2 51127  53.2163  35.9340 0001635  90.0916 270.0264 15.08860538140732,6917.818,95.436,540.814,538.552,0.0
51127.0,STARLINK-3370,PAYLOAD,2024-08-04 18:27:22,15.08855942,0.0001491,53.2163,31.4732,99.9014,260.2146,0.0012848,0.00020228,0.0,0 STARLINK-3370,1 51127U 22005Z   24217.76901537  .00020228  00000-0  12848-2 0  9998,2 51127  53.2163  31.4732 0001491  99.9014 260.2146 15.08855942142000,6917.832,95.437,540.728,538.665,0.0
51127.0,STARLINK-3370,PAYLOAD,2024-08-05 18:18:09,15.08860867,0.0001605,53.2176,27.0176,99.4212,260.6962,0.00059846,9.255e-05,0.0,0 STARLINK-3370,1 51127U 22005Z   24218.76260933  .00009255  00000-0  59846-3 0  9994,2 51127  53.2176  27.0176 0001605  99.4212 260.6962 15.08860867142157,6917.817,95.436,540.792,538.571,0.0
51127.0,STARLINK-3370,PAYLOAD,2024-08-06 03:50:28,15.08849605,0.0001403,53.217,25.2264,86.4204,273.6948,0.00024411,3.6e-05,0.0,0 STARLINK-3370,1 51127U 22005Z   24219.16005009  .00003600  00000-0  24411-3 0  9998,2 51127  53.2170  25.2264 0001403  86.4204 273.6948 15.08849605142214,6917.851,95.437,540.687,538.745,0.0
51127.0,STARLINK-3370,PAYLOAD,2024-08-06 11:47:24,15.08840829,0.0002561,53.217,23.7411,88.8785,271.2501,0.00038105,5.782e-05,0.0,0 STARLINK-3370,1 51127U 22005Z   24219.49125508  .00005782  00000-0  38105-3 0  9999,2 51127  53.2170  23.7411 0002561  88.8785 271.2501 15.08840829141146,6917.878,95.438,541.515,537.971,0.0
51127.0,STARLINK-3370,PAYLOAD,2024-08-06 18:08:57,15.08832948,0.00017,53.2182,22.5567,119.7314,240.3847,-0.00010709,-1.992e-05,0.0,0 STARLINK-3370,1 51127U 22005Z   24219.75621653 -.00001992  00000-0 -10709-3 0  9991,2 51127  53.2182  22.5567 0001700 119.7314 240.3847 15.08832948142306,6917.902,95.438,540.943,538.591,0.0
51127.0,STARLINK-3370,PAYLOAD,2024-08-07 17:59:44,15.08845354,0.0001394,53.2177,18.0948,116.5595,243.554,0.00033906,5.113e-05,0.0,0 STARLINK-3370,1 51127U 22005Z   24220.74981669  .00005113  00000-0  33906-3 0  9999,2 51127  53.2177  18.0948 0001394 116.5595 243.5540 15.08845354142454,6917.864,95.437,540.693,538.765,0.0
51127.0,STARLINK-3370,PAYLOAD,2024-08-08 09:53:36,15.08836095,0.0001512,53.2178,15.1203,75.2555,284.8605,0.00031747,4.768e-05,0.0,0 STARLINK-3370,1 51127U 22005Z   24221.41222474  .00004768  00000-0  31747-3 0  9992,2 51127  53.2178  15.1203 0001512  75.2555 284.8605 15.08836095141435,6917.892,95.438,540.803,538.711,0.0
51127.0,STARLINK-3370,PAYLOAD,2024-08-08 16:15:08,15.08834986,0.0001569,53.2166,13.9302,75.9159,284.2007,0.0001832,2.628e-05,0.0,0 STARLINK-3370,1 51127U 22005Z   24221.67718732  .00002628  00000-0  18320-3 0  9992,2 51127  53.2166  13.9302 0001569  75.9159 284.2007 15.08834986142592,6917.896,95.438,540.846,538.675,0.0
51127.0,STARLINK-3370,PAYLOAD,2024-08-09 03:22:50,15.08845846,0.0001413,53.2167,11.8465,94.402,265.7134,0.00038801,5.894e-05,0.0,0 STARLINK-3370,1 51127U 22005Z   24222.14086287  .00005894  00000-0  38801-3 0  9992,2 51127  53.2167  11.8465 0001413  94.4020 265.7134 15.08845846142661,6917.863,95.437,540.705,538.75,0.0
51127.0,STARLINK-3370,PAYLOAD,2024-08-09 09:44:23,15.08847536,0.0001452,53.2168,10.6576,91.6264,268.4895,0.00044361,6.781e-05,0.0,0 STARLINK-3370,1 51127U 22005Z   24222.40582242  .00006781  00000-0  44361-3 0  9997,2 51127  53.2168  10.6576 0001452  91.6264 268.4895 15.08847536141586,6917.857,95.437,540.727,538.718,0.0
51127.0,STARLINK-3370,PAYLOAD,2024-08-09 19:16:40,15.08874936,0.0001407,53.2172,8.8721,92.806,267.3093,0.00090384,0.0001414,0.0,0 STARLINK-3370,1 51127U 22005Z   24222.80325044  .00014140  00000-0  90384-3 0  9990,2 51127  53.2172   8.8721 0001407  92.8060 267.3093 15.08874936142762,6917.774,95.435,540.612,538.665,0.0
51127.0,STARLINK-3370,PAYLOAD,2024-08-10 14:21:19,15.08842758,0.0001375,53.2174,5.3046,101.3265,258.7881,9.7332e-06,-1.33e-06,0.0,0 STARLINK-3370,1 51127U 22005Z   24223.59813717 -.00000133  00000-0  97332-5 0  9996,2 51127  53.2174   5.3046 0001375 101.3265 258.7881 15.08842758141768,6917.872,95.437,540.688,538.786,0.0
51127.0,STARLINK-3370,PAYLOAD,2024-08-10 19:07:28,15.08854668,0.0001477,53.2175,4.4114,81.5008,278.6151,0.00080488,0.0001255,0.0,0 STARLINK-3370,1 51127U 22005Z   24223.79685642  .00012550  00000-0  80488-3 0  9999,2 51127  53.2175   4.4114 0001477  81.5008 278.6151 15.08854668142914,6917.836,95.437,540.722,538.679,0.0
51127.0,STARLINK-3370,PAYLOAD,2024-08-11 09:25:56,15.08844282,0.0001997,53.217,1.7369,88.7094,271.4127,0.0015976,0.00025232,0.0,0 STARLINK-3370,1 51127U 22005Z   24224.39302064  .00025232  00000-0  15976-2 0  9990,2 51127  53.2170   1.7369 0001997  88.7094 271.4127 15.08844282143008,6917.867,95.437,541.114,538.351,0.0
51127.0,STARLINK-3370,PAYLOAD,2024-08-11 18:58:15,15.0887484,0.0002287,53.2182,359.9519,90.1164,270.009,0.0021566,0.00034235,0.0,0 STARLINK-3370,1 51127U 22005Z   24224.79045715  .00034235  00000-0  21566-2 0  9996,2 51127  53.2182 359.9519 0002287  90.1164 270.0090 15.08874840141942,6917.774,95.435,541.221,538.057,0.0
51127.0,STARLINK-3370,PAYLOAD,2024-08-12 18:49:01,15.08900568,0.0002081,53.218,355.4915,95.8834,264.2395,0.0031872,0.00050888,0.0,0 STARLINK-3370,1 51127U 22005Z   24225.78404562  .00050888  00000-0  31872-2 0  9998,2 51127  53.2180 355.4915 0002081  95.8834 264.2395 15.08900568143211,6917.695,95.434,541.0,538.121,0.0
51127.0,STARLINK-3370,PAYLOAD,2024-08-12 20:24:24,15.0893832,0.000167,53.2176,355.1955,98.8579,261.2603,0.0052624,0.00084699,0.0,0 STARLINK-3370,1 51127U 22005Z   24225.85028048  .00084699  00000-0  52624-2 0  9992,2 51127  53.2176 355.1955 0001670  98.8579 261.2603 15.08938320142102,6917.58,95.431,540.6,538.29,0.0
51127.0,STARLINK-3370,PAYLOAD,2024-08-13 01:10:34,15.08864083,0.0002152,53.2182,354.3025,71.8343,288.2884,0.0018484,0.00029272,0.0,0 STARLINK-3370,1 51127U 22005Z   24226.04900664  .00029272  00000-0  18484-2 0  9999,2 51127  53.2182 354.3025 0002152  71.8343 288.2884 15.08864083143255,6917.807,95.436,541.16,538.183,0.0
51127.0,STARLINK-3370,PAYLOAD,2024-08-13 09:07:29,15.08839784,0.0002182,53.2176,352.8157,100.0718,260.0521,-0.00088921,-0.00014413,0.0,0 STARLINK-3370,1 51127U 22005Z   24226.38020590 -.00014413  00000-0 -88921-3 0  9994,2 51127  53.2176 352.8157 0002182 100.0718 260.0521 15.08839784143303,6917.881,95.438,541.256,538.237,0.0
51127.0,STARLINK-3370,PAYLOAD,2024-08-13 18:39:50,15.08789945,0.0001703,53.2149,351.0363,61.4043,298.712,0.00050118,7.686e-05,0.0,0 STARLINK-3370,1 51127U 22005Z   24226.77766660  .00007686  00000-0  50118-3 0  9991,2 51127  53.2149 351.0363 0001703  61.4043 298.7120 15.08789945143364,6918.033,95.441,541.077,538.72,0.0
51127.0,STARLINK-3370,PAYLOAD,2024-08-14 12:09:05,15.08838438,0.0001341,53.2176,347.762,62.5859,297.527,0.0020333,0.00032219,0.0,0 STARLINK-3370,1 51127U 22005Z   24227.50631670  .00032219  00000-0  20333-2 0  9990,2 51127  53.2176 347.7620 0001341  62.5859 297.5270 15.08838438143474,6917.885,95.438,540.678,538.822,0.0
51127.0,STARLINK-3370,PAYLOAD,2024-08-14 15:19:51,15.08848354,0.0001198,53.2168,347.1673,72.9897,287.1227,0.0020762,0.00032917,0.0,0 STARLINK-3370,1 51127U 22005Z   24227.63879540  .00032917  00000-0  20762-2 0  9995,2 51127  53.2168 347.1673 0001198  72.9897 287.1227 15.08848354142377,6917.855,95.437,540.549,538.891,0.0
51127.0,STARLINK-3370,PAYLOAD,2024-08-15 00:52:10,15.08847009,0.0001107,53.2161,345.3852,84.963,275.1489,0.00080447,0.00012541,0.0,0 STARLINK-3370,1 51127U 22005Z   24228.03623458  .00012541  00000-0  80447-3 0  9993,2 51127  53.2161 345.3852 0001107  84.9630 275.1489 15.08847009143551,6917.859,95.437,540.49,538.958,0.0
51127.0,STARLINK-3370,PAYLOAD,2024-08-16 00:42:57,15.08849265,0.0001212,53.2167,340.9246,88.2028,271.9103,0.00041743,6.363e-05,0.0,0 STARLINK-3370,1 51127U 22005Z   24229.02983141  .00006363  00000-0  41743-3 0  9992,2 51127  53.2167 340.9246 0001212  88.2028 271.9103 15.08849265143700,6917.852,95.437,540.556,538.879,0.0
51127.0,STARLINK-3370,PAYLOAD,2024-08-17 16:27:36,15.08841887,0.0001044,53.217,333.4876,92.9447,267.1664,0.00043411,6.628e-05,0.0,0 STARLINK-3370,1 51127U 22005Z   24230.68583736  .00006628  00000-0  43411-3 0  9990,2 51127  53.2170 333.4876 0001044  92.9447 267.1664 15.08841887143958,6917.875,95.437,540.462,539.017,0.0
51127.0,STARLINK-3370,PAYLOAD,2024-08-18 13:07:36,15.08871857,0.0001367,53.2175,329.6211,90.0258,270.0891,0.00094759,0.00014838,0.0,0 STARLINK-3370,1 51127U 22005Z   24231.54694798  .00014838  00000-0  94759-3 0  9990,2 51127  53.2175 329.6211 0001367  90.0258 270.0891 15.08871857144080,6917.783,95.436,540.594,538.702,0.0
51127.0,STARLINK-3370,PAYLOAD,2024-08-19 12:58:23,15.08844971,0.0001399,53.2176,325.1661,92.8878,267.2274,5.1471e-05,5.31e-06,0.0,0 STARLINK-3370,1 51127U 22005Z   24232.54055072  .00000531  00000-0  51471-4 0  9997,2 51127  53.2176 325.1661 0001399  92.8878 267.2274 15.08844971144231,6917.865,95.437,540.698,538.762,0.0
51127.0,STARLINK-3370,PAYLOAD,2024-08-20 12:49:10,15.08846763,0.0001662,53.2186,320.7016,104.2518,255.8659,9.033e-05,1.15e-05,0.0,0 STARLINK-3370,1 51127U 22005Z   24233.53415024  .00001150  00000-0  90330-4 0  9999,2 51127  53.2186 320.7016 0001662 104.2518 255.8659 15.08846763143262,6917.86,95.437,540.874,538.575,0.0
51127.0,STARLINK-3370,PAYLOAD,2024-08-21 12:39:58,15.08831563,0.0001443,53.2173,316.2417,95.4723,264.6434,4.5001e-05,4.28e-06,0.0,0 STARLINK-3370,1 51127U 22005Z   24234.52776105  .00000428  00000-0  45001-4 0  9991,2 51127  53.2173 316.2417 0001443  95.4723 264.6434 15.08831563144531,6917.906,95.438,540.769,538.773,0.0
